#aV2021  1  7  0  0  0.00000000     288 DD+AD WGS84 FIT  NGA
## 2139 345600.00000000   300.00000000 59221 0.0000000000000
+   32     1  2  3  4  5  6  7  8  9 10 11 12 13 14 15 16 17
+         18 19 20 21 22 23 24 25 26 27 28 29 30 31 32  0  0
+          0  0  0  0  0  0  0  0  0  0  0  0  0  0  0  0  0
+          0  0  0  0  0  0  0  0  0  0  0  0  0  0  0  0  0
+          0  0  0  0  0  0  0  0  0  0  0  0  0  0  0  0  0
++         2  2  2  2  2  2  2  2  2  2  2  2  2  2  2  2  2
++         2  2  2  2  2  2  2  2  2  2  2  2  2  2  2  0  0
++         0  0  0  0  0  0  0  0  0  0  0  0  0  0  0  0  0
++         0  0  0  0  0  0  0  0  0  0  0  0  0  0  0  0  0
++         0  0  0  0  0  0  0  0  0  0  0  0  0  0  0  0  0
%c cc cc ccc ccc cccc cccc cccc cccc ccccc ccccc ccccc ccccc
%c cc cc ccc ccc cccc cccc cccc cccc ccccc ccccc ccccc ccccc
%f  0.0000000  0.000000000  0.00000000000  0.000000000000000
%f  0.0000000  0.000000000  0.00000000000  0.000000000000000
%i    0    0    0    0      0      0      0      0         0
%i    0    0    0    0      0      0      0      0         0
/*      NGA, ST. LOUIS,MO.                                  
/*   EPHEMERIS COMPUTED FROM 2 DAYS OF DATA                 
/*   EPOCHA v5 SMOOTHER                                     
/*   G2139 IERS2010 SATAF SATAPC                            
*  2021  1  7 13 10  0.00000000
P  1 -13729.178105  18207.874303  13088.597793    784.122030                    
V  1   2348.834582 -17061.804259  26055.376380     -0.061278                    
P  2  14305.734475   4408.935204 -21283.309716   -563.318377                    
V  2  -5140.877498  28138.582057   2309.200734     -0.042501                    
P  3 -20737.318003  13147.728493 -10078.627512    -50.107335                    
V  3 -12860.153652   1232.778917  28391.290804     -0.098444                    
P  4 -12160.530752   9290.924641 -21706.745961   -170.824916                    
V  4 -19067.248753 -19915.582407   2108.811588     -0.030409                    
P  5  25200.845118  -1738.473135  -8657.019333    -30.362860                    
V  5  -9418.871786   5763.574597 -28907.523594     -0.009828                    
P  6   7321.289311  18596.558548 -17406.315448     -4.645994                    
V  6  -6702.392387  21202.159840  19803.395527      0.000003                    
P  7  -5727.412502  25642.446554   1259.032613     12.509825                    
V  7  -3710.108791    309.189674 -31825.977293      0.145877                    
P  8 -17902.837579   1770.068961  19646.197024     -5.736292                    
V  8 -17457.010962 -17658.808655 -14038.976273     -0.013424                    
P  9   -557.652216  18274.524472 -19321.777844   -310.172109                    
V  9 -18805.258005 -15659.860858 -14336.103504     -0.040981                    
P 10  -7093.746717 -13576.466647  21818.900761    -33.818023                    
V 10  26290.068750  -7781.107686   3462.449935     -0.085687                    
P 11 -13372.235570  10475.555511  20034.617580    -59.665782                    
V 11  -7215.930651 -25594.807392   8015.247001      0.105929                    
P 12  23481.446048 -10003.499302  -7288.662509     16.234652                    
V 12   9238.644960    395.178635  30370.830179     -0.052131                    
P 13  20153.064662   9027.090087  14708.910544     83.308069                    
V 13  10278.081125  15918.830882 -23515.039054      0.041155                    
P 14   4137.885029  14683.244776  21735.633700     81.323384                    
V 14 -26858.432812   6446.083355    754.717596      0.069352                    
P 15  17538.867630  -4595.918700  19164.529179   -177.959867                    
V 15  18987.008475  16498.444450 -12815.786857      0.025976                    
P 16 -25190.483388  -1531.131809  -9230.014311   -261.613406                    
V 16  10712.599717  -3801.692427 -28887.507916     -0.055252                    
P 17  13356.889807  21862.187763   7458.534328    377.179843                    
V 17  -7402.942421  -5233.207217  30357.840224      0.048684                    
P 18   4707.543023 -25895.053708   3329.466063    339.424783                    
V 18   3684.367091  -3384.163547 -31544.819141      0.030013                    
P 19  17606.870089  19933.901487   -998.387846    -55.054508                    
V 19  -1009.278560   2047.935324  32114.520992      0.049911                    
P 20   5545.855304 -17673.751769  18876.637108    525.269479                    
V 20  22906.847135  -8228.962905 -14654.849453     -0.001722                    
P 21 -15704.873512  10254.567046  19388.392705     84.693595                    
V 21   2568.763016 -23137.256823  15295.044091      0.033813                    
P 22 -24344.423339  10325.628382   -996.422081   -702.366246                    
V 22  -2799.035099  -3012.529657  31209.954435      0.065561                    
P 23   5163.996772 -16372.186769  20230.371680    114.972945                    
V 23  24878.621459  -6723.838007 -11811.057869      0.018640                    
P 24  14760.396668 -14469.822355  16223.064486      4.005018                    
V 24  -1160.666462  21404.948245  20252.478895     -0.004946                    
P 25  12428.804937 -16045.197407 -17233.607882     54.968137                    
V 25  21163.311497  -4220.072131  19745.700477      0.075778                    
P 26 -18476.138358  -7425.785747 -17744.957533     26.337506                    
V 26  20720.362790  -8685.890249 -17722.900381      0.057182                    
P 27 -21784.811279 -10304.439137  11409.033217    -51.122390                    
V 27  -9269.309042 -11375.143135 -27257.264993     -0.078105                    
P 28   7382.286737  13797.701115  22008.326402    632.922430                    
V 28 -26043.814175   5343.676920   5711.419272     -0.050964                    
P 29   2484.070545 -17211.387827 -20100.596484   -271.210795                    
V 29  17612.051238  18308.033027 -13564.787216     -0.074092                    
P 30   1885.676001  23895.613184  11247.706103   -365.094108                    
V 30  -6935.790358  12950.841445 -26674.602281     -0.061126                    
P 31  -9271.020229 -16193.646735 -18792.520108    -92.425704                    
V 31   8032.150224 -22561.727791  16001.236073     -0.023456                    
P 32 -15271.240641 -20870.983107   6511.080171     12.967087                    
V 32   7717.220129   3667.570663  30112.568164      0.021898                    
EOF
